NORAD_CAT_ID,OBJECT_NAME,OBJECT_TYPE,EPOCH,MEAN_MOTION,ECCENTRICITY,INCLINATION,RA_OF_ASC_NODE,ARG_OF_PERICENTER,MEAN_ANOMALY,BSTAR,MEAN_MOTION_DOT,MEAN_MOTION_DDOT,TLE_LINE0,TLE_LINE1,TLE_LINE2,SEMIMAJOR_AXIS,PERIOD,APOGEE,PERIGEE,DECAYED
51966.0,STARLINK-3699,PAYLOAD,2022-06-11 22:00:00,15.08853332,0.0001842,53.2171,44.7868,58.841,354.298,-0.0010006,-0.00016183,0.0,0 STARLINK-3699,1 51966U 22025L   22162.91667824 -.00016183  00000-0 -10006-2 0  9994,2 51966  53.2171  44.7868 0001842  58.8410 354.2980 15.08853332 15955,6917.84,95.437,540.979,538.43,0.0
51966.0,STARLINK-3699,PAYLOAD,2022-06-12 14:00:01,15.08814093,0.0001625,53.2166,41.7925,63.6876,12.6733,0.0031522,0.00050201,0.0,0 STARLINK-3699,1 51966U 22025L   22163.58334491  .00050201  00000-0  31522-2 0  9992,2 51966  53.2166  41.7925 0001625  63.6876  12.6733 15.08814093  1305,6917.96,95.439,540.9490000000002,538.7,0.0
51966.0,STARLINK-3699,PAYLOAD,2022-06-12 22:00:00,15.08849584,0.0001757,53.2166,40.298,59.0316,28.9159,-0.00067301,-0.00010986,0.0,0 STARLINK-3699,1 51966U 22025L   22163.91667824 -.00010986  00000-0 -67301-3 0  9991,2 51966  53.2166  40.2980 0001757  59.0316  28.9159 15.08849584 16114,6917.851,95.437,540.932,538.501,0.0
51966.0,STARLINK-3699,PAYLOAD,2022-06-13 14:00:01,15.08815774,0.0001505,53.2162,37.3035,62.4129,48.7474,0.0029095,0.0004629,0.0,0 STARLINK-3699,1 51966U 22025L   22164.58334491  .00046290  00000-0  29095-2 0  9998,2 51966  53.2162  37.3035 0001505  62.4129  48.7474 15.08815774  1308,6917.954000000002,95.439,540.861,538.778,0.0
51966.0,STARLINK-3699,PAYLOAD,2022-06-13 22:00:00,15.08844617,0.0001583,53.2161,35.809,55.5622,67.1892,-0.002659,-0.00042363,0.0,0 STARLINK-3699,1 51966U 22025L   22164.91667824 -.00042363  00000-0 -26590-2 0  9990,2 51966  53.2161  35.8090 0001583  55.5622  67.1892 15.08844617  1305,6917.866,95.437,540.826,538.636,0.0
51966.0,STARLINK-3699,PAYLOAD,2022-06-14 06:00:00,15.08837855,0.0001522,53.2159,34.3121,52.1578,82.1714,-0.0008075,-0.00013116,0.0,0 STARLINK-3699,1 51966U 22025L   22165.25001157 -.00013116  00000-0 -80750-3 0  9992,2 51966  53.2159  34.3121 0001522  52.1578  82.1714 15.08837855 16310,6917.887,95.438,540.805,538.6990000000002,0.0
51966.0,STARLINK-3699,PAYLOAD,2022-06-14 14:00:01,15.08831396,0.0001423,53.2159,32.8144,59.8269,86.094,0.00182,0.00028789,0.0,0 STARLINK-3699,1 51966U 22025L   22165.58334491  .00028789  00000-0  18200-2 0  9998,2 51966  53.2159  32.8144 0001423  59.8269  86.0940 15.08831396  1300,6917.906999999997,95.438,540.756,538.7869999999998,0.0
51966.0,STARLINK-3699,PAYLOAD,2022-06-14 22:00:00,15.08829769,0.0001541999999999,53.2159,31.3197,52.3326,105.1809,-0.0010568,-0.00017063,0.0,0 STARLINK-3699,1 51966U 22025L   22165.91667824 -.00017063  00000-0 -10568-2 0  9998,2 51966  53.2159  31.3197 0001542  52.3326 105.1809 15.08829769  1304,6917.9119999999975,95.438,540.8430000000002,538.71,0.0
51966.0,STARLINK-3699,PAYLOAD,2022-06-15 06:00:00,15.08844215,0.0001493,53.2158,29.8226,50.1721,118.915,-0.0011184,-0.00018045,0.0,0 STARLINK-3699,1 51966U 22025L   22166.25001157 -.00018045  00000-0 -11184-2 0  9993,2 51966  53.2158  29.8226 0001493  50.1721 118.9150 15.08844215 16465,6917.868,95.437,540.765,538.7,0.0
51966.0,STARLINK-3699,PAYLOAD,2022-06-15 14:00:01,15.08835612,0.0001455,53.2161,28.3249,58.6694,122.0095,0.0016626999999999,0.0002627,0.0,0 STARLINK-3699,1 51966U 22025L   22166.58334491  .00026270  00000-0  16627-2 0  9993,2 51966  53.2161  28.3249 0001455  58.6694 122.0095 15.08835612  1300,6917.894,95.438,540.765,538.752,0.0
51966.0,STARLINK-3699,PAYLOAD,2022-06-15 22:00:00,15.08841662,0.0001668,53.216,26.8302,52.7318,139.5564,-0.00079627,-0.00012939,0.0,0 STARLINK-3699,1 51966U 22025L   22166.91667824 -.00012939  00000-0 -79627-3 0  9998,2 51966  53.2160  26.8302 0001668  52.7318 139.5564 15.08841662 16566,6917.875,95.437,540.894,538.586,0.0
51966.0,STARLINK-3699,PAYLOAD,2022-06-16 02:00:01,15.08818287,0.0001691,53.216,26.0821,50.8147,327.2782,0.003592,0.0005731,0.0,0 STARLINK-3699,1 51966U 22025L   22167.08334491  .00057310  00000-0  35920-2 0  9995,2 51966  53.2160  26.0821 0001691  50.8147 327.2782 15.08818287  1300,6917.946999999999,95.439,540.982,538.6419999999998,0.0
51966.0,STARLINK-3699,PAYLOAD,2022-06-19 14:00:01,15.08846746,0.0001537,53.2171,10.3678,64.283,255.4632,0.001099,0.00017249,0.0,0 STARLINK-3699,1 51966U 22025L   22170.58334491  .00017249  00000-0  10990-2 0  9991,2 51966  53.2171  10.3678 0001537  64.2830 255.4632 15.08846746  1302,6917.86,95.437,540.788,538.661,0.0
51966.0,STARLINK-3699,PAYLOAD,2022-06-19 22:00:00,15.08842826,0.0001646,53.2169,8.8733,55.5272,275.8317,-0.00058043,-9.514e-05,0.0,0 STARLINK-3699,1 51966U 22025L   22170.91667824 -.00009514  00000-0 -58043-3 0  9997,2 51966  53.2169   8.8733 0001646  55.5272 275.8317 15.08842826  1308,6917.871999999999,95.437,540.875,538.5980000000002,0.0
51966.0,STARLINK-3699,PAYLOAD,2022-06-20 06:00:00,15.0884535,0.0001488,53.2165,7.3756,57.239,285.7121,-0.00098056,-0.00015862,0.0,0 STARLINK-3699,1 51966U 22025L   22171.25001157 -.00015862  00000-0 -98056-3 0  9997,2 51966  53.2165   7.3756 0001488  57.2390 285.7121 15.08845350 17212,6917.864000000001,95.437,540.758,538.7,0.0
51966.0,STARLINK-3699,PAYLOAD,2022-06-20 14:00:01,15.08864353,0.0001406,53.2167,5.879,62.3054,292.2338,-0.0020566,-0.00032891,0.0,0 STARLINK-3699,1 51966U 22025L   22171.58334491 -.00032891  00000-0 -20566-2 0  9994,2 51966  53.2167   5.8790 0001406  62.3054 292.2338 15.08864353  1309,6917.806,95.436,540.644,538.698,0.0
51966.0,STARLINK-3699,PAYLOAD,2022-06-20 22:00:00,15.08840473,0.0001541999999999,53.2165,4.3844,53.7069,312.451,-0.00041521,-6.890000000000001e-05,0.0,0 STARLINK-3699,1 51966U 22025L   22171.91667824 -.00006890  00000-0 -41521-3 0  9995,2 51966  53.2165   4.3844 0001542  53.7069 312.4510 15.08840473 17314,6917.879,95.438,540.811,538.677,0.0
51966.0,STARLINK-3699,PAYLOAD,2022-06-21 14:00:01,15.08864198,0.0001315,53.2164,1.39,58.1864,331.1438,-0.0029916,-0.00047616,0.0,0 STARLINK-3699,1 51966U 22025L   22172.58334491 -.00047616  00000-0 -29916-2 0  9994,2 51966  53.2164   1.3900 0001315  58.1864 331.1438 15.08864198  1302,6917.806,95.436,540.581,538.762,0.0
51966.0,STARLINK-3699,PAYLOAD,2022-06-21 22:00:00,15.08795838,0.0001426999999999,53.2163,359.8953,48.5652,352.3747,0.0027204,0.0004322,0.0,0 STARLINK-3699,1 51966U 22025L   22172.91667824  .00043220  00000-0  27204-2 0  9993,2 51966  53.2163 359.8953 0001427  48.5652 352.3747 15.08795838  1304,6918.015,95.44,540.868,538.893,0.0
51966.0,STARLINK-3699,PAYLOAD,2022-06-22 00:00:02,15.08799212,0.0001422,53.216,359.5211,45.6905,88.2013,0.0029479,0.00046888,0.0,0 STARLINK-3699,1 51966U 22025L   22173.00002315  .00046888  00000-0  29479-2 0  9991,2 51966  53.2160 359.5211 0001422  45.6905  88.2013 15.08799212 17486,6918.005,95.44,540.854,538.886,0.0
51966.0,STARLINK-3699,PAYLOAD,2022-06-22 14:00:01,15.08815303,0.0001428,53.2163,356.901,57.9739,6.0977,-8.9481e-05,-1.711e-05,0.0,0 STARLINK-3699,1 51966U 22025L   22173.58334491 -.00001711  00000-0 -89481-4 0  9996,2 51966  53.2163 356.9010 0001428  57.9739   6.0977 15.08815303  1305,6917.956,95.439,540.809,538.8330000000002,0.0
51966.0,STARLINK-3699,PAYLOAD,2022-06-22 16:00:00,15.08821365,0.000147,53.2163,356.5274,55.5675,101.3938,-0.0011004,-0.00017749,0.0,0 STARLINK-3699,1 51966U 22025L   22173.66667824 -.00017749  00000-0 -11004-2 0  9996,2 51966  53.2163 356.5274 0001470  55.5675 101.3938 15.08821365 17581,6917.937,95.439,540.819,538.785,0.0
51966.0,STARLINK-3699,PAYLOAD,2022-06-22 22:00:00,15.08791663,0.0001569,53.2163,355.4063,49.9749,25.6638,0.0032132,0.00051154,0.0,0 STARLINK-3699,1 51966U 22025L   22173.91667824  .00051154  00000-0  32132-2 0  9995,2 51966  53.2163 355.4063 0001569  49.9749  25.6638 15.08791663  1308,6918.028,95.441,540.979,538.808,0.0
51966.0,STARLINK-3699,PAYLOAD,2022-06-23 14:00:01,15.08844409,0.0001501999999999,53.2165,352.4119,56.89,41.8763,-0.00053484,-8.791e-05,0.0,0 STARLINK-3699,1 51966U 22025L   22174.58334491 -.00008791  00000-0 -53484-3 0  9995,2 51966  53.2165 352.4119 0001502  56.8900  41.8763 15.08844409 17721,6917.8669999999975,95.437,540.771,538.693,0.0
51966.0,STARLINK-3699,PAYLOAD,2022-06-23 22:00:00,15.08816977,0.0001631,53.2165,350.9172,49.173,61.1966,0.0034589,0.00055157,0.0,0 STARLINK-3699,1 51966U 22025L   22174.91667824  .00055157  00000-0  34589-2 0  9991,2 51966  53.2165 350.9172 0001631  49.1730  61.1966 15.08816977  1308,6917.951,95.439,540.944,538.687,0.0
51966.0,STARLINK-3699,PAYLOAD,2022-06-24 14:00:01,15.08982691,0.0001594,53.2174,347.9296,53.7625,79.7807,-0.011804,-0.00184106,0.0,0 STARLINK-3699,1 51966U 22025L   22175.58334491 -.00184106  00000-0 -11804-1 0  9999,2 51966  53.2174 347.9296 0001594  53.7625  79.7807 15.08982691 17878,6917.444,95.429,540.4119999999998,538.207,0.0
51966.0,STARLINK-3699,PAYLOAD,2022-06-24 22:00:01,15.08848923,0.0001625,53.2167,346.4276,47.9252,97.3266,0.00062955,9.748e-05,0.0,0 STARLINK-3699,1 51966U 22025L   22175.91668981  .00009748  00000-0  62955-3 0  9991,2 51966  53.2167 346.4276 0001625  47.9252  97.3266 15.08848923  1303,6917.853,95.437,540.842,538.594,0.0
51966.0,STARLINK-3699,PAYLOAD,2022-06-25 06:00:00,15.08832754,0.0001401,53.2168,344.9295,52.1858,104.6225,0.0012026,0.00018899,0.0,0 STARLINK-3699,1 51966U 22025L   22176.25001157  .00018899  00000-0  12026-2 0  9995,2 51966  53.2168 344.9295 0001401  52.1858 104.6225 15.08832754 17972,6917.903,95.438,540.737,538.798,0.0
51966.0,STARLINK-3699,PAYLOAD,2022-06-25 14:00:01,15.08871546,0.000147,53.217,343.4334,54.5745,113.8175,-0.0029605,-0.00047137,0.0,0 STARLINK-3699,1 51966U 22025L   22176.58334491 -.00047137  00000-0 -29605-2 0  9991,2 51966  53.2170 343.4334 0001470  54.5745 113.8175 15.08871546  1308,6917.784000000002,95.436,540.6659999999998,538.632,0.0
